[Satellite]
VERSION=1.1
NAME=CZ-6A DEB
NICKNAME=CZ-6A DEB
TLE1=1 54413U 22151EM  22342.47394491  .00004640  00000+0  76676-3 0  9990
TLE2=2 54413  98.8719 349.5765 0192360 164.7561 195.9546 14.59370345  3600
STATUS=0
